{"type": "FeatureCollection", "features": [ {"type": "Feature", "properties": {"norad_id": 66597, "name": "STARLINK-35820", "group": "last-30-days", "lat": -3.625152957173826, "lon": 35.67476783701182, "alt_km": 399.4453970945706, "timestamp": "2025-12-09T11:33:53.576068+00:00", "meta": {"OBJECT_NAME": "STARLINK-35820", "OBJECT_ID": "2025-270K", "EPOCH": "2025-12-09T04:00:01.998720", "MEAN_MOTION": 15.57364047, "ECCENTRICITY": 0.0001328, "INCLINATION": 42.9991, "RA_OF_ASC_NODE": 213.6371, "ARG_OF_PERICENTER": 265.8474, "MEAN_ANOMALY": 311, "EPHEMERIS_TYPE": 0, "CLASSIFICATION_TYPE": "U", "NORAD_CAT_ID": 66597, "ELEMENT_SET_NO": 999, "REV_AT_EPOCH": 393, "BSTAR": -0.029694, "MEAN_MOTION_DOT": -0.01962328, "MEAN_MOTION_DDOT": 0}, "tle": {"line1": "1 66597U 25270K   25343.16668980 -.01962328  00000+0 -29694-1 0  9993", "line2": "2 66597  42.9991 213.6371 0001328 265.8474 311.0000 15.57364047  3934"}}, "geometry": {"type": "Point", "coordinates": [35.67476783701182, -3.625152957173826]}}, {"type": "Feature", "properties": {"norad_id": 66598, "name": "STARLINK-35981", "group": "last-30-days", "lat": -4.930308079095099, "lon": 37.08259156284319, "alt_km": 399.4489963951082, "timestamp": "2025-12-09T11:33:53.576078+00:00", "meta": {"OBJECT_NAME": "STARLINK-35981", "OBJECT_ID": "2025-270L", "EPOCH": "2025-12-09T04:00:01.998720", "MEAN_MOTION": 15.57364922, "ECCENTRICITY": 0.0001177, "INCLINATION": 42.9993, "RA_OF_ASC_NODE": 213.6318, "ARG_OF_PERICENTER": 258.3913, "MEAN_ANOMALY": 320.3745, "EPHEMERIS_TYPE": 0, "CLASSIFICATION_TYPE": "U", "NORAD_CAT_ID": 66598, "ELEMENT_SET_NO": 999, "REV_AT_EPOCH": 366, "BSTAR": -0.02973, "MEAN_MOTION_DOT": -0.01964386, "MEAN_MOTION_DDOT": 0}, "tle": {"line1": "1 66598U 25270L   25343.16668980 -.01964386  00000+0 -29730-1 0  9991", "line2": "2 66598  42.9993 213.6318 0001177 258.3913 320.3745 15.57364922  3666"}}, "geometry": {"type": "Point", "coordinates": [37.08259156284319, -4.930308079095099]}}, {"type": "Feature", "properties": {"norad_id": 66599, "name": "STARLINK-35930", "group": "last-30-days", "lat": -6.229471038547321, "lon": 38.49431217636409, "alt_km": 399.6087876359388, "timestamp": "2025-12-09T11:33:53.576088+00:00", "meta": {"OBJECT_NAME": "STARLINK-35930", "OBJECT_ID": "2025-270M", "EPOCH": "2025-12-09T04:00:01.998720", "MEAN_MOTION": 15.57367953, "ECCENTRICITY": 0.0001167, "INCLINATION": 42.9993, "RA_OF_ASC_NODE": 213.6281, "ARG_OF_PERICENTER": 260.5284, "MEAN_ANOMALY": 320.1511, "EPHEMERIS_TYPE": 0, "CLASSIFICATION_TYPE": "U", "NORAD_CAT_ID": 66599, "ELEMENT_SET_NO": 999, "REV_AT_EPOCH": 382, "BSTAR": -0.029754, "MEAN_MOTION_DOT": -0.01965969, "MEAN_MOTION_DDOT": 0}, "tle": {"line1": "1 66599U 25270M   25343.16668980 -.01965969  00000+0 -29754-1 0  9996", "line2": "2 66599  42.9993 213.6281 0001167 260.5284 320.1511 15.57367953  3825"}}, "geometry": {"type": "Point", "coordinates": [38.49431217636409, -6.229471038547321]}}, {"type": "Feature", "properties": {"norad_id": 66600, "name": "STARLINK-35980", "group": "last-30-days", "lat": -7.523580652202819, "lon": 39.91043095854439, "alt_km": 399.76043361070606, "timestamp": "2025-12-09T11:33:53.576098+00:00", "meta": {"OBJECT_NAME": "STARLINK-35980", "OBJECT_ID": "2025-270N", "EPOCH": "2025-12-09T04:00:01.998720", "MEAN_MOTION": 15.57367938, "ECCENTRICITY": 0.0001194, "INCLINATION": 42.9994, "RA_OF_ASC_NODE": 213.6232, "ARG_OF_PERICENTER": 262.976, "MEAN_ANOMALY": 319.6171, "EPHEMERIS_TYPE": 0, "CLASSIFICATION_TYPE": "U", "NORAD_CAT_ID": 66600, "ELEMENT_SET_NO": 999, "REV_AT_EPOCH": 372, "BSTAR": -0.029696, "MEAN_MOTION_DOT": -0.01962631, "MEAN_MOTION_DDOT": 0}, "tle": {"line1": "1 66600U 25270N   25343.16668980 -.01962631  00000+0 -29696-1 0  9997", "line2": "2 66600  42.9994 213.6232 0001194 262.9760 319.6171 15.57367938  3727"}}, "geometry": {"type": "Point", "coordinates": [39.91043095854439, -7.523580652202819]}}, {"type": "Feature", "properties": {"norad_id": 66601, "name": "STARLINK-35978", "group": "last-30-days", "lat": -8.81758724266178, "lon": 41.34011271339744, "alt_km": 399.91882352556604, "timestamp": "2025-12-09T11:33:53.576108+00:00", "meta": {"OBJECT_NAME": "STARLINK-35978", "OBJECT_ID": "2025-270P", "EPOCH": "2025-12-09T04:00:01.998720", "MEAN_MOTION": 15.57367886, "ECCENTRICITY": 0.0001086, "INCLINATION": 42.9993, "RA_OF_ASC_NODE": 213.6183, "ARG_OF_PERICENTER": 263.5673, "MEAN_ANOMALY": 320.9479, "EPHEMERIS_TYPE": 0, "CLASSIFICATION_TYPE": "U", "NORAD_CAT_ID": 66601, "ELEMENT_SET_NO": 999, "REV_AT_EPOCH": 366, "BSTAR": -0.029766, "MEAN_MOTION_DOT": -0.01966589, "MEAN_MOTION_DDOT": 0}, "tle": {"line1": "1 66601U 25270P   25343.16668980 -.01966589  00000+0 -29766-1 0  9992", "line2": "2 66601  42.9993 213.6183 0001086 263.5673 320.9479 15.57367886  3663"}}, "geometry": {"type": "Point", "coordinates": [41.34011271339744, -8.81758724266178]}}, {"type": "Feature", "properties": {"norad_id": 66602, "name": "STARLINK-36050", "group": "last-30-days", "lat": -10.10170519035573, "lon": 42.774757405767275, "alt_km": 399.91555771382536, "timestamp": "2025-12-09T11:33:53.576118+00:00", "meta": {"OBJECT_NAME": "STARLINK-36050", "OBJECT_ID": "2025-270Q", "EPOCH": "2025-12-09T04:00:01.998720", "MEAN_MOTION": 15.57369219, "ECCENTRICITY": 0.0001291, "INCLINATION": 42.9993, "RA_OF_ASC_NODE": 213.6133, "ARG_OF_PERICENTER": 259.5903, "MEAN_ANOMALY": 326.8423, "EPHEMERIS_TYPE": 0, "CLASSIFICATION_TYPE": "U", "NORAD_CAT_ID": 66602, "ELEMENT_SET_NO": 999, "REV_AT_EPOCH": 372, "BSTAR": -0.029851, "MEAN_MOTION_DOT": -0.01971786, "MEAN_MOTION_DDOT": 0}, "tle": {"line1": "1 66602U 25270Q   25343.16668980 -.01971786  00000+0 -29851-1 0  9993", "line2": "2 66602  42.9993 213.6133 0001291 259.5903 326.8423 15.57369219  3721"}}, "geometry": {"type": "Point", "coordinates": [42.774757405767275, -10.10170519035573]}}, {"type": "Feature", "properties": {"norad_id": 66603, "name": "STARLINK-36048", "group": "last-30-days", "lat": -11.381281581905212, "lon": 44.22268030680232, "alt_km": 400.10913720319604, "timestamp": "2025-12-09T11:33:53.576130+00:00", "meta": {"OBJECT_NAME": "STARLINK-36048", "OBJECT_ID": "2025-270R", "EPOCH": "2025-12-09T04:00:01.998720", "MEAN_MOTION": 15.57366581, "ECCENTRICITY": 0.0001267, "INCLINATION": 42.9994, "RA_OF_ASC_NODE": 213.6081, "ARG_OF_PERICENTER": 264.2608, "MEAN_ANOMALY": 324.0898, "EPHEMERIS_TYPE": 0, "CLASSIFICATION_TYPE": "U", "NORAD_CAT_ID": 66603, "ELEMENT_SET_NO": 999, "REV_AT_EPOCH": 372, "BSTAR": -0.029744, "MEAN_MOTION_DOT": -0.01965369, "MEAN_MOTION_DDOT": 0}, "tle": {"line1": "1 66603U 25270R   25343.16668980 -.01965369  00000+0 -29744-1 0  9995", "line2": "2 66603  42.9994 213.6081 0001267 264.2608 324.0898 15.57366581  3728"}}, "geometry": {"type": "Point", "coordinates": [44.22268030680232, -11.381281581905212]}}, {"type": "Feature", "properties": {"norad_id": 66604, "name": "STARLINK-35977", "group": "last-30-days", "lat": -12.655277531229117, "lon": 45.68570657452386, "alt_km": 400.20679587057293, "timestamp": "2025-12-09T11:33:53.576140+00:00", "meta": {"OBJECT_NAME": "STARLINK-35977", "OBJECT_ID": "2025-270S", "EPOCH": "2025-12-09T04:00:01.998720", "MEAN_MOTION": 15.57367369, "ECCENTRICITY": 0.0001113, "INCLINATION": 42.9996, "RA_OF_ASC_NODE": 213.6031, "ARG_OF_PERICENTER": 261.6055, "MEAN_ANOMALY": 328.6627, "EPHEMERIS_TYPE": 0, "CLASSIFICATION_TYPE": "U", "NORAD_CAT_ID": 66604, "ELEMENT_SET_NO": 999, "REV_AT_EPOCH": 382, "BSTAR": -0.029761, "MEAN_MOTION_DOT": -0.01966322, "MEAN_MOTION_DDOT": 0}, "tle": {"line1": "1 66604U 25270S   25343.16668980 -.01966322  00000+0 -29761-1 0  9995", "line2": "2 66604  42.9996 213.6031 0001113 261.6055 328.6627 15.57367369  3829"}}, "geometry": {"type": "Point", "coordinates": [45.68570657452386, -12.655277531229117]}}, {"type": "Feature", "properties": {"norad_id": 66605, "name": "STARLINK-36052", "group": "last-30-days", "lat": -13.91560608356176, "lon": 47.15801490384378, "alt_km": 400.2090736711698, "timestamp": "2025-12-09T11:33:53.576150+00:00", "meta": {"OBJECT_NAME": "STARLINK-36052", "OBJECT_ID": "2025-270T", "EPOCH": "2025-12-09T04:00:01.998720", "MEAN_MOTION": 15.57365615, "ECCENTRICITY": 0.0001343, "INCLINATION": 42.9991, "RA_OF_ASC_NODE": 213.5989, "ARG_OF_PERICENTER": 260.1198, "MEAN_ANOMALY": 332.0639, "EPHEMERIS_TYPE": 0, "CLASSIFICATION_TYPE": "U", "NORAD_CAT_ID": 66605, "ELEMENT_SET_NO": 999, "REV_AT_EPOCH": 382, "BSTAR": -0.029742, "MEAN_MOTION_DOT": -0.01965274, "MEAN_MOTION_DDOT": 0}, "tle": {"line1": "1 66605U 25270T   25343.16668980 -.01965274  00000+0 -29742-1 0  9990", "line2": "2 66605  42.9991 213.5989 0001343 260.1198 332.0639 15.57365615  3827"}}, "geometry": {"type": "Point", "coordinates": [47.15801490384378, -13.91560608356176]}}, {"type": "Feature", "properties": {"norad_id": 66606, "name": "STARLINK-36063", "group": "last-30-days", "lat": -16.417508620955097, "lon": 50.16173110076125, "alt_km": 400.377895954628, "timestamp": "2025-12-09T11:33:53.576162+00:00", "meta": {"OBJECT_NAME": "STARLINK-36063", "OBJECT_ID": "2025-270U", "EPOCH": "2025-12-09T04:00:01.998720", "MEAN_MOTION": 15.57366861, "ECCENTRICITY": 0.0001186, "INCLINATION": 42.9991, "RA_OF_ASC_NODE": 213.5889, "ARG_OF_PERICENTER": 255.3868, "MEAN_ANOMALY": 340.6322, "EPHEMERIS_TYPE": 0, "CLASSIFICATION_TYPE": "U", "NORAD_CAT_ID": 66606, "ELEMENT_SET_NO": 999, "REV_AT_EPOCH": 382, "BSTAR": -0.029795, "MEAN_MOTION_DOT": -0.0196831, "MEAN_MOTION_DDOT": 0}, "tle": {"line1": "1 66606U 25270U   25343.16668980 -.01968310  00000+0 -29795-1 0  9993", "line2": "2 66606  42.9991 213.5889 0001186 255.3868 340.6322 15.57366861  3820"}}, "geometry": {"type": "Point", "coordinates": [50.16173110076125, -16.417508620955097]}}]}